0 IRIDIUM 33 DEB
1 34709U 97051LG  13282.52351392  .00014597  00000-0  38458-2 0   998
2 34709 086.3414 114.9954 0017695 252.5219 136.8550 14.48839855242526
0 IRIDIUM 33 DEB
1 34709U 97051LG  13283.02593906  .00013371  00000-0  35229-2 0  1008
2 34709 086.3415 114.7768 0017686 250.5483 237.7189 14.48843728242599
0 IRIDIUM 33 DEB
1 34709U 97051LG  13283.55385390  .00007604  00000-0  20107-2 0  1003
2 34709 086.3412 114.5468 0017720 250.2956 109.6826 14.48835012242673
0 IRIDIUM 33 DEB
1 34709U 97051LG  13285.49326264  .00011691  00000-0  30768-2 0  1019
2 34709 086.3413 113.7047 0017771 241.5262 147.9032 14.48894943242950
0 IRIDIUM 33 DEB
1 34709U 97051LG  13286.53361939  .00011834  00000-0  31131-2 0  1028
2 34709 086.3408 113.2523 0017903 237.8006 174.7262 14.48916135243108
0 IRIDIUM 33 DEB
1 34709U 97051LG  13288.00430580  .00022096  00000-0  58035-2 0  1036
2 34709 086.3404 112.6136 0017908 232.6554 286.3116 14.48955212243324
0 IRIDIUM 33 DEB
1 34709U 97051LG  13289.49866017  .00017816  00000-0  46765-2 0  1040
2 34709 086.3401 111.9638 0017918 227.7013 161.3370 14.49003489243534
0 IRIDIUM 33 DEB
1 34709U 97051LG  13290.46540336  .00018974  00000-0  49773-2 0  1051
2 34709 086.3403 111.5436 0018085 224.0528 164.7403 14.49028211243674
0 IRIDIUM 33 DEB
1 34709U 97051LG  13291.50578003  .00016399  00000-0  42999-2 0  1062
2 34709 086.3401 111.0914 0018030 221.0319 191.4833 14.49058541243823
0 IRIDIUM 33 DEB
1 34709U 97051LG  13292.69443278  .00016215  00000-0  42488-2 0  1079
2 34709 086.3404 110.5747 0018178 216.8296 272.5424 14.49091772243991
0 IRIDIUM 33 DEB
1 34709U 97051LG  13293.73130220  .00017882  00000-0  46821-2 0  1082
2 34709 086.3407 110.1239 0018252 213.3707 281.6766 14.49118905244144
0 IRIDIUM 33 DEB
1 34709U 97051LG  13295.51094060  .00020820  00000-0  54437-2 0  1090
2 34709 086.3410 109.3504 0018317 207.5978 205.7634 14.49171841244408
